1 37586U 04025L   18212.53606892 +.00000354 +00000-0 +18542-3 0  9998
2 37586 098.2210 123.7651 0324333 255.1985 101.3043 13.96150456404102
1 37588U 99025EKG 18204.55079780 +.00000358 +00000-0 +25391-3 0  9991
2 37588 098.1559 125.4235 0098233 199.4016 160.4581 14.00808430536060
1 37589U 99025EKH 18180.96835962 -.00000278 +00000-0 -17711-3 0  9992
2 37589 099.1011 090.0198 0155043 126.5809 234.9731 13.89010759446524
1 37590U 99025EKJ 18208.67181969 +.00000880 +00000-0 +26464-3 0  9996
2 37590 099.0013 018.7566 0145154 295.1460 063.4729 14.39623636552857
1 37591U 99025EKK 18212.39543206 +.00001529 +00000-0 +87524-3 0  9992
2 37591 098.4269 268.4085 0146421 201.2344 221.8234 14.05600894283846
1 37592U 99025EKL 11268.98902868 +.00003321 +00000-0 +10807-2 0  9996
2 37592 098.9040 338.7609 0104341 002.3315 358.4180 14.36408548142044
1 37593U 99025EKM 18205.57015257 +.00000309 +00000-0 +13759-3 0  9990
2 37593 098.9537 319.7420 0181102 331.4282 092.3127 14.21857871476726
1 37594U 99025EKN 18211.27986686 +.00000137 +00000-0 +10250-3 0  9990
2 37594 099.0459 236.1989 0087020 293.6559 065.5495 14.08892655398316
1 37595U 99025EKP 12023.75198549  .00016574  00000-0  98225-2 0  9991
2 37595  99.1257  35.0350 0065385  64.4828 296.3626 14.06552113431874
1 37596U 99025EKQ 18213.34676125  .00000531  00000-0  27793-3 0  9994
2 37596  98.9926 252.9281 0032306 148.7750 269.9879 14.18398682507181
1 37597U 99025EKR 18212.97771993  .00000625  00000-0  17332-3 0  9994
2 37597  98.3016 289.7929 0262468  14.3335 346.5114 14.31668246506919
1 37598U 99025EKS 18213.36070667  .00000429  00000-0  22552-3 0  9991
2 37598  98.9573 246.7778 0013891  94.0095 324.7053 14.19372809494651
1 37599U 99025EKT 12133.57341238 +.00007287 +00000-0 +14449-2 0  9999
2 37599 099.0124 264.9467 0175577 263.7164 091.1506 14.53212244177802
1 37600U 99025EKU 18208.70028803 +.00000167 +00000-0 +15763-3 0  9997
2 37600 098.9365 180.4201 0436298 257.9072 097.2876 13.57320423517471
1 37609U 90081CV  18213.28904260  .00000055  00000-0  57731-4 0  9996
2 37609  98.7280 229.4089 0066238 274.8375 148.5750 14.07040578747932
1 37610U 90081CW  18212.12187308 -.00000057 +00000-0 -14218-4 0  9993
2 37610 098.9803 188.9445 0152146 281.9713 076.4418 13.76165523311492
1 37611U 90081CX  11280.04472320 +.00008691 +00000-0 +37610-2 0  9993
2 37611 098.9571 005.1348 0035156 194.1668 174.2013 14.24218774442485
1 37612U 90081CY  18212.32567424 +.00000330 +00000-0 +11693-3 0  9993
2 37612 098.5493 240.8637 0035556 220.9170 195.6777 14.40555019268398
1 37613U 90081CZ  18212.49624464 -.00000215 +00000-0 -12151-3 0  9994
2 37613 098.9153 093.8028 0184382 074.2190 287.9217 13.90875632731074
1 37614U 90081DA  18213.26923705  .00000081  00000-0  75346-4 0  9996
2 37614  98.7829 223.6605 0075630  21.5786  38.0150 14.04503205712900
1 37615U 90081DB  18210.26927950 +.00000389 +00000-0 +17968-3 0  9996
2 37615 098.5618 232.5831 0015503 097.7436 262.5505 14.26322907213440
1 37616U 90081DC  18212.91871764 +.00000019 +00000-0 +47710-4 0  9991
2 37616 099.0181 267.9213 0101657 205.1948 154.4233 13.90747885316589
1 37617U 90081DD  18212.27506170  .00000281  00000-0  20600-3 0  9996
2 37617  98.7795 229.0230 0009297  23.8583  33.8252 14.03662599788433
1 37619U 90081DF  18211.82042720 -.00000143  00000-0 -61465-4 0  9998
2 37619  98.7305 234.4233 0011942 158.9269 201.2394 14.06144105802713
1 37620U 90081DG  18204.29062678 +.00000436 +00000-0 +20036-3 0  9998
2 37620 098.5082 231.9509 0006005 148.6805 271.6603 14.26058695685026
1 37622U 90081DJ  18212.87288372  .00000278  00000-0  10771-3 0  9993
2 37622  98.5975 242.6992 0037546 325.2580 158.5155 14.37156102917747
1 37623U 90081DK  18212.26363164  .00000052  00000-0  47989-4 0  9992
2 37623  98.6577 234.4984 0023600 125.7683 234.5691 14.16030443820839
1 37624U 90081DL  18209.28237535 +.00000186 +00000-0 +13680-3 0  9991
2 37624 098.7473 228.2353 0012280 177.1315 243.5191 14.07015937806326
1 37625U 90081DM  18212.88565356 +.00000409 +00000-0 +15585-3 0  9991
2 37625 098.3942 241.4124 0004091 094.2902 265.8752 14.35829142819538
1 37626U 90081DN  18213.11568378 -.00000016  00000-0  24063-4 0  9993
2 37626  98.9705 324.2383 0165815  68.7333  52.5888 13.70475354747929
1 37632U 82102C   18209.93266536 +.00000107 +00000-0 +90020-4 0  9997
2 37632 082.9638 193.5465 0033074 060.1402 300.3036 13.78526174561373
1 37682U 99025EKX 18212.68051553  .00000034  00000-0  75524-4 0  9992
2 37682  98.6169 118.5155 0243775 277.8638  79.4902 13.63880397411120
1 37683U 99025EKY 18195.63348647 -.00000193  00000-0 -14489-3 0  9991
2 37683  97.9912 332.5418 0629704  98.3464 330.0022 13.21139544516526
1 37684U 99025EKZ 13083.90042290 +.00001773 +00000-0 +15603-2 0  9999
2 37684 098.1683 128.1084 0254295 129.7896 232.7223 13.72646808272331
1 37685U 99025ELA 18213.33476944  .00000846  00000-0  51964-3 0  9995
2 37685  98.0138  34.1864 0214632 212.3236 270.9945 13.97117464433563
1 37686U 99025ELB 18212.60870579 +.00000068 +00000-0 +13769-3 0  9994
2 37686 099.0949 136.1698 0400371 213.2386 275.0277 13.33317898247465
1 37687U 99025ELC 18212.37782472 -.00000600  00000-0 -44626-3 0  9993
2 37687  98.2160 254.4853 0411854   4.0990  48.7142 13.58434792465181
1 37688U 99025ELD 18212.55507113 +.00000966 +00000-0 +48998-3 0  9990
2 37688 099.0498 254.6268 0049297 277.3199 082.2373 14.17852331502125
1 37689U 99025ELE 18212.65023296 +.00000669 +00000-0 +33961-3 0  9991
2 37689 098.8664 167.3483 0029518 105.1715 255.2728 14.19153503194437
1 37690U 99025ELF 18212.32583600 +.00000417 +00000-0 +26887-3 0  9997
2 37690 098.9822 252.1678 0043323 337.9700 081.8341 14.08105909258197
1 37691U 99025ELG 16103.38862251  .00001294  00000-0  83699-3 0  9991
2 37691  98.9357 171.3818 0041059 268.9962  90.7084 14.02387929358031
1 37692U 99025ELH 18213.45553419  .00001079  00000-0  42354-3 0  9991
2 37692  98.9101 292.7657 0004100 270.4597 147.6540 14.31508350452833
1 37693U 99025ELJ 18212.60758866 +.00000309 +00000-0 +21676-3 0  9990
2 37693 098.9081 261.8812 0073870 072.9137 080.0166 14.04170037243464
1 37694U 99025ELK 18212.67481663 +.00000412 +00000-0 +27476-3 0  9995
2 37694 098.2248 144.8492 0178108 186.1766 296.4624 13.98350587139618
1 37695U 99025ELL 18212.42451656  .00000280  00000-0  20284-3 0  9991
2 37695  98.2326 283.5949 0493303 184.5937 241.5348 13.56191091527064
1 37696U 99025ELM 14033.00200173 +.00003561 +00000-0 +13144-2 0  9990
2 37696 099.6773 319.1109 0043891 251.5824 118.7452 14.32681301228953
1 37697U 99025ELN 18183.77310649 +.00005276 +00000-0 +72032-3 0  9992
2 37697 096.5843 019.3352 0040332 069.3421 279.6609 14.78355698505745
1 37698U 99025ELP 18208.17199969  .00000580  00000-0  55238-3 0  9997
2 37698  97.9943 176.7479 0360818 151.6250 211.4367 13.57925194511077
1 37699U 99025ELQ 18212.31100993 +.00000392 +00000-0 +31200-3 0  9992
2 37699 097.9835 019.9063 0123521 291.9845 188.8383 13.92562502192508
1 37700U 99025ELR 11197.30896769 +.00000229 +00000-0 +15364-3 0  9994
2 37700 099.0488 213.9414 0030867 282.6088 077.5297 14.10480862128911
1 37701U 99025ELS 18206.53708425 +.00001198 +00000-0 +88718-3 0  9998
2 37701 097.6620 104.9318 0315695 162.1250 324.2944 13.75439871388175
1 37702U 99025ELT 15111.26525699 +.00001378 +00000-0 +65167-3 0  9994
2 37702 098.8885 128.1113 0048112 295.7409 062.2457 14.20776337324854
1 37703U 99025ELU 18212.24755965  .00000700  00000-0  31768-3 0  9997
2 37703  99.1448  14.3409 0054051 180.1595 307.6647 14.24486886493844
1 37704U 99025ELV 18212.93586194 +.00000288 +00000-0 +32233-3 0  9999
2 37704 098.3384 014.8277 0255547 142.8111 011.7108 13.64180960256237
1 37705U 99025ELW 18213.07064923  .00000936  00000-0  12748-3 0  9996
2 37705  99.5040 154.8365 0104019 287.6006  71.3859 14.78439266517597
1 37706U 99025ELX 18212.38453800  .00000417  00000-0  25639-3 0  9993
2 37706  99.0051 253.5970 0049403 319.8426 108.0465 14.10580635522076
1 37707U 99025ELY 18212.62122955  .00000161  00000-0  56639-4 0  9996
2 37707 100.2065 348.0164 0171113 188.5140 238.5362 14.44234797471373
1 37708U 99025ELZ 18211.17059408  .00000378  00000-0  89184-4 0  9999
2 37708  98.2915 349.0516 0344176 312.7789  44.4911 14.29950690535024
1 37710U 99025EMB 18178.53402986  .00000438  00000-0  54122-3 0  9997
2 37710  99.2177 289.0742 0268868 303.0663 114.4308 13.56413830504886
1 37712U 99025EMD 18181.50759528  .00000115  00000-0  59278-4 0  9997
2 37712  98.6732 274.5758 0088714  66.3842 357.9252 14.29845179514960
1 37713U 99025EME 17296.80349549 +.00000730 +00000-0 +62460-3 0  9994
2 37713 098.0676 140.6610 0135402 150.2263 210.6688 13.85385360457257
1 37714U 99025EMF 18210.64042470 +.00000660 +00000-0 +37158-3 0  9995
2 37714 098.9713 275.6525 0063336 205.5433 154.2605 14.12896592193470
1 37715U 99025EMG 18212.34966705  .00000076  00000-0  89611-4 0  9994
2 37715  99.1715 243.9182 0116787 252.7518 174.1173 13.91922705451605
1 37716U 99025EMH 18212.32595084 +.00000319 +00000-0 +17924-3 0  9998
2 37716 098.9029 251.1653 0035918 030.9348 026.9856 14.17219376223609
1 37717U 99025EMJ 18213.18807035  .00000395  00000-0  11257-3 0  9993
2 37717  98.7703 355.8103 0125852  26.2321  95.9684 14.46662599502601
1 37719U 99025EML 18211.36619392  .00000321  00000-0  12919-3 0  9995
2 37719  99.4871 271.5021 0061953 156.3909 266.2143 14.34547162466717
1 37722U 99025EMP 15349.93456858  .00003718  00000-0  60635-3 0  9998
2 37722  98.3105  33.9246 0167915  25.5965 335.4079 14.61976061300619
1 37723U 99025EMQ 14355.03762966 +.00014247 +00000-0 +59639-2 0  9996
2 37723 099.0687 077.8430 0158535 202.7029 284.1920 14.19570543308940
1 37724U 99025EMR 11306.62176740 +.00009552 +00000-0 +23297-2 0  9998
2 37724 099.2120 082.9056 0194041 296.8344 064.1473 14.42097830099453
1 37725U 99025EMS 11240.50573707 +.00002706 +00000-0 +50641-3 0  9995
2 37725 098.8278 341.8877 0198872 241.9763 117.2487 14.53870077140257
1 37732U 11030C   18212.90934236 +.00000236 +00000-0 +99889-4 0  9995
2 37732 097.9936 091.9559 0166690 094.3590 329.8158 14.25826945367337
